BEIJING 1               
1 28890U 05043A   25065.71020497  .00000694  00000+0  14476-3 0  9990
2 28890  98.2262 193.2632 0013738 307.5155  52.4797 14.63001939 32287
HUANJING 1A (HJ-1A)     
1 33320U 08041A   25065.70756879  .00002451  00000+0  31327-3 0  9991
2 33320  97.6397  66.2345 0018295 229.1830 130.7798 14.82146487889117
HUANJING 1B (HJ-1B)     
1 33321U 08041B   25065.71223293  .00001933  00000+0  24840-3 0  9998
2 33321  97.6300  70.5457 0035687 277.2781  82.4377 14.81843553889143
YAOGAN-4                
1 33446U 08061A   25065.69317373  .00002255  00000+0  29315-3 0  9998
2 33446  97.8985 359.1924 0015534 147.6140 212.6030 14.81591595876409
DEIMOS-1                
1 35681U 09041A   25065.73346737  .00001307  00000+0  20435-3 0  9992
2 35681  97.6917 239.9565 0000209 183.8280 176.2928 14.74344703837981
UK-DMC 2                
1 35683U 09041C   25065.70180372  .00001761  00000+0  27045-3 0  9990
2 35683  97.8143 209.4039 0001148  81.3693 278.7646 14.74772156837631
DMC3-FM1                
1 40715U 15032A   25065.74811472  .00001188  00000+0  14596-3 0  9995
2 40715  97.7142 302.5889 0006409 139.8463 220.3227 14.84811986520529
DMC3-FM2                
1 40716U 15032B   25065.70292490  .00001218  00000+0  14950-3 0  9993
2 40716  97.7197 303.7936 0008116 147.4469 212.7248 14.84827078520510
DMC3-FM3                
1 40717U 15032C   25065.74428370  .00001172  00000+0  14440-3 0  9999
2 40717  97.7250 305.2369 0009582 145.7670 214.4165 14.84714705520521
